ECHOSTAR 17             
1 38551U 12035A   19209.73452125 -.00000074  00000-0  00000-0 0  9995
2 38551   0.0276  77.2792 0001974  50.3909 335.7565  1.00270655 25861
METEOSAT-10 (MSG-3)     
1 38552U 12035B   19207.36146764  .00000070  00000-0  00000+0 0  9996
2 38552   1.0490  26.3440 0001181 156.4770 260.9063  1.00283193 25975
SES-5                   
1 38652U 12036A   19209.87245443  .00000034  00000-0  00000-0 0  9991
2 38652   0.0565 104.5566 0001805  19.3662 141.3745  1.00272627 19282
TIANLIAN 1-03           
1 38730U 12040A   19209.89007876  .00000126  00000-0  00000-0 0  9993
2 38730   0.2042 268.1170 0000646  85.9832 292.9515  1.00276083 25767
INTELSAT 20 (IS-20)     
1 38740U 12043A   19210.02869396 -.00000025  00000-0  00000+0 0  9995
2 38740   0.0148  97.3104 0001847  84.2105 203.6819  1.00274804 25610
HYLAS 2                 
1 38741U 12043B   19210.16146752  .00000154  00000-0  00000+0 0  9997
2 38741   0.0550 265.3727 0001697 234.0526 256.2405  1.00272416 25635
INTELSAT 21 (IS-21)     
1 38749U 12045A   19209.85989248 -.00000284  00000-0  00000-0 0  9992
2 38749   0.0245  77.1984 0001806  56.7046  63.8853  1.00269398 25326
ASTRA 2F                
1 38778U 12051A   19209.87707795  .00000150  00000-0  00000-0 0  9999
2 38778   0.0875 245.2456 0002859 303.3017 101.5962  1.00271367 15944
GSAT-10                 
1 38779U 12051B   19210.51924633 -.00000166  00000-0  00000+0 0  9992
2 38779   0.0673 258.1710 0002948 197.8384 120.8021  1.00272210 25072
INTELSAT 23 (IS-23)     
1 38867U 12057A   19210.19403956 -.00000285  00000-0  00000+0 0  9992
2 38867   0.0155 320.3473 0001756 171.3376 191.7254  1.00273463 24881
BEIDOU 16               
1 38953U 12059A   19210.13834218 -.00000177  00000-0  00000+0 0  9993
2 38953   1.9656  83.1980 0002896 209.1284 148.0153  1.00271480 24828
LUCH 5B                 
1 38977U 12061A   19210.44248113 -.00000123  00000-0  00000+0 0  9990
2 38977   5.0849  69.6679 0003379   4.3634  17.6486  1.00272367 24968
YAMAL 300K              
1 38978U 12061B   19209.83616431  .00000072  00000-0  00000-0 0  9997
2 38978   0.0178  67.2025 0000438  56.7587 306.2021  1.00270330 24655
STAR ONE C3             
1 38991U 12062A   19210.38064971 -.00000250  00000-0  00000+0 0  9999
2 38991   0.0168  65.1039 0002068  71.1765 232.4820  1.00272436 24646
EUTELSAT 21B            
1 38992U 12062B   19209.87576940  .00000131  00000-0  00000-0 0  9994
2 38992   0.0659  28.3233 0002497  99.6632 155.0944  1.00273442 24626
ECHOSTAR 16             
1 39008U 12065A   19210.40364522 -.00000283  00000-0  00000+0 0  9996
2 39008   0.0174  86.7110 0002088  35.3622 268.4964  1.00272182 24598
CHINASAT 12 (ZX 12)     
1 39017U 12067A   19209.88894203 -.00000206  00000-0  00000-0 0  9998
2 39017   0.0269 101.0835 0002934  25.2052 227.4825  1.00270930 24289
EUTELSAT 70B            
1 39020U 12069A   19209.88553983 -.00000043  00000-0  00000-0 0  9990
2 39020   0.0597  20.2707 0004400 126.3415 188.8955  1.00271396 24284
YAMAL 402               
1 39022U 12070A   19210.45670059  .00000085  00000-0  00000+0 0  9997
2 39022   0.0169  75.4868 0002645  61.3480  29.2762  1.00271597 24388
SKYNET 5D               
1 39034U 12075A   19210.45635164  .00000098  00000-0  00000+0 0  9997
2 39034   0.0714   1.4900 0003257 139.6590  22.6950  1.00272437 24306
MEXSAT 3                
1 39035U 12075B   19210.52126257 -.00000027  00000-0  00000+0 0  9997
2 39035   0.0195 106.0704 0002131  33.8479 239.8014  1.00272053 24267
TDRS 11                 
1 39070U 13004A   19209.75606347  .00000086  00000-0  00000-0 0  9990
2 39070   4.3077 329.8992 0002951  99.9870 333.9752  1.00271654 23769
AMAZONAS 3              
1 39078U 13006A   19210.40427135 -.00000283  00000-0  00000+0 0  9999
2 39078   0.0453 237.0454 0003269 286.0891 228.1780  1.00269537 23758
AZERSPACE 1             
1 39079U 13006B   19210.45495587  .00000132  00000-0  00000+0 0  9993
2 39079   0.0137   1.3438 0001664 162.5239 352.7061  1.00273845 23712
SBIRS GEO-2 (USA 241)   
1 39120U 13011A   19209.87559493  .00000126  00000-0  00000-0 0  9991
2 39120   2.5253 332.9778 0002408 148.6401 160.4260  1.00272423 23332
EUTELSAT 117 WEST A     
1 39122U 13012A   19209.74007819 -.00000012  00000-0  00000-0 0  9995
2 39122   0.0235 298.5114 0002620 193.1486 324.0689  1.00271301 23227
ANIK G1                 
1 39127U 13014A   19210.18110001 -.00000074  00000-0  00000+0 0  9997
2 39127   0.0468 263.6547 0000675 275.8775  84.9262  1.00270959 23025
CHINASAT 11 (ZX 11)     
1 39157U 13020A   19210.75251747 -.00000293  00000-0  00000+0 0  9996
2 39157   0.0545 238.7893 0001788  70.3994   6.8500  1.00273492 22930
EUTELSAT 7B             
1 39163U 13022A   19210.15999091  .00000048  00000-0  00000+0 0  9997
2 39163   0.0535 334.9470 0002956  64.6895 331.4778  1.00270583 22763
WGS F5 (USA 243)        
1 39168U 13024A   19209.86102654 -.00000284  00000-0  00000-0 0  9995
2 39168   0.0254  81.6377 0000526 171.5758 310.4792  1.00268806 21964
SES-6                   
1 39172U 13026A   19209.86338191 -.00000260  00000-0  00000-0 0  9993
2 39172   0.0559 287.9240 0001835 221.7062  66.9003  1.00271093 22508
IRNSS-1A                
1 39199U 13034A   19208.78534403  .00000071  00000-0  00000-0 0  9994
2 39199  30.1989 102.0513 0018014 180.9692 359.9634  1.00268898 22133
MUOS-2                  
1 39206U 13036A   19209.85160507 -.00000122  00000-0  00000-0 0  9992
2 39206   2.8466 347.4107 0052214   3.0635 162.3278  1.00273198 21985
ALPHASAT                
1 39215U 13038A   19210.14771736  .00000136  00000-0  00000+0 0  9993
2 39215   2.2572  22.8543 0001898 127.1916 234.4815  1.00273682 22052
INSAT-3D                
1 39216U 13038B   19210.51994078 -.00000158  00000-0  00000+0 0  9996
2 39216   0.0612 255.8647 0001224 251.7394  68.5604  1.00272094 22085
WGS F6 (USA 244)        
1 39222U 13041A   19209.75118676  .00000090  00000-0  00000-0 0  9998
2 39222   0.0238  78.4359 0000459 182.2348 180.6800  1.00270759 20821
EUTELSAT 25B            
1 39233U 13044A   19209.84854256  .00000144  00000-0  00000-0 0  9994
2 39233   0.0461  12.7078 0001581 118.2645 146.1696  1.00272120 21674
GSAT-7                  
1 39234U 13044B   19209.67757955 -.00000076  00000-0  00000-0 0  9999
2 39234   0.0533 260.8327 0005177   7.0166 356.0995  1.00271619 20110
AMOS-4                  
1 39237U 13045A   19210.45879425  .00000007  00000-0  00000+0 0  9990
2 39237   0.0460 259.0866 0002576 211.8816  66.0117  1.00270471 21678
AEHF-3 (USA 246)        
1 39256U 13050A   19209.90185295 -.00000180  00000-0  00000-0 0  9994
2 39256   1.0678 316.6401 0003606  98.5333   7.9513  1.00273530 20453
ASTRA 2E                
1 39285U 13056A   19209.87716517  .00000151  00000-0  00000-0 0  9992
2 39285   0.0556  31.2142 0002445  80.0577 179.2500  1.00272605 21246
SIRIUS FM-6             
1 39360U 13058A   19209.70478701 -.00000015  00000-0  00000-0 0  9990
2 39360   0.0093  31.5477 0000241 250.9946 161.0915  1.00270267 21128
RADUGA-1M 3             
1 39375U 13062A   19210.45975384 -.00000040  00000-0  00000+0 0  9991
2 39375   0.0346 135.5129 0003125  19.1337  27.7212  1.00272516 20910
SES-8                   
1 39460U 13071A   19209.90474262 -.00000269  00000-0  00000+0 0  9996
2 39460   0.0621 256.6960 0002549 225.5690 244.7189  1.00272045 20655
INMARSAT 5-F1           
1 39476U 13073A   19210.45827083  .00000027  00000-0  00000+0 0  9991
2 39476   0.0284  75.6545 0000746 192.6712 266.0754  1.00269579 20711
TKSAT-1 (TUPAC KATARI)  
1 39481U 13075A   19210.46507858 -.00000196  00000-0  00000+0 0  9993
2 39481   0.0051 106.5345 0002208   8.4609 272.0718  1.00271422 20633
EXPRESS-AM5             
1 39487U 13077A   19209.88750956 -.00000279  00000-0  00000-0 0  9997
2 39487   0.0617 246.1820 0001160  79.0017  80.5967  1.00272620 21145
GSAT-14                 
1 39498U 14001A   19209.67757955 -.00000076  00000-0  00000-0 0  9995
2 39498   0.0913 274.5789 0001562 317.1917  32.2095  1.00272885 20201
THAICOM 6               
1 39500U 14002A   19209.89598390 -.00000120  00000-0  00000+0 0  9999
2 39500   0.0638 121.0968 0004639  15.6116 210.5791  1.00269472 20306
TDRS 12                 
1 39504U 14004A   19209.86818498 -.00000262  00000-0  00000+0 0  9993
2 39504   5.0619 336.7567 0002545 208.0041  33.1369  1.00274494 20224
ABS-2                   
1 39508U 14006A   19209.88641219 -.00000086  00000-0  00000-0 0  9991
2 39508   0.0150  76.1559 0002907  30.4963 233.6312  1.00271766 20067
ATHENA-FIDUS            
1 39509U 14006B   19209.87899713  .00000154  00000-0  00000-0 0  9990
2 39509   0.0131  97.5083 0000921  22.1560 180.8050  1.00271003 19852
TURKSAT 4A              
1 39522U 14007A   19210.45417076  .00000145  00000-0  00000+0 0  9999
2 39522   0.0732 268.9033 0001942 299.4009 304.0005  1.00269389 19993
EXPRESS-AT1             
1 39612U 14010A   19209.81086588  .00000079  00000-0  00000+0 0  9997
2 39612   0.0551 239.5679 0000404 137.1892 277.3240  1.00274202 19827
EXPRESS-AT2             
1 39613U 14010B   19210.66030368 -.00000283  00000-0  00000+0 0  9996
2 39613   0.0577 240.9941 0000543  49.1773  34.3934  1.00271866 19664
AMAZONAS 4A             
1 39616U 14011A   19209.85675198 -.00000252  00000-0  00000-0 0  9992
2 39616   0.0590  68.8828 0003323  65.3093  46.4647  1.00273481 19476
ASTRA 5B                
1 39617U 14011B   19209.87777582  .00000155  00000-0  00000-0 0  9996
2 39617   0.0323  61.5424 0003199  64.6485 167.5496  1.00268904 19449
IRNSS-1B                
1 39635U 14017A   19208.75952238  .00000103  00000-0  00000-0 0  9994
2 39635  29.2333 282.5331 0021551 187.4380 163.6895  1.00276553 19354
LUCH 5V                 
1 39727U 14023A   19210.24960772 -.00000268  00000-0  00000+0 0  9994
2 39727   1.1369 305.2711 0002727 194.0534 351.8210  1.00276424537307
